{
  "type": "FeatureCollection",
  "features": [
    {
      "type": "Feature",
      "properties": {
        "norad_id": 30153,
        "name": "FENGYUN 1C DEB",
        "group": "fengyun-1c-debris",
        "lat": 26.219304738701027,
        "lon": -34.085929060988455,
        "alt_km": 820.8773428707545,
        "timestamp": "2025-12-07T07:31:36.572575+00:00",
        "meta_object_name": "FENGYUN 1C DEB",
        "meta_object_id": "1999-025TJ",
        "meta_epoch": "2025-12-06T22:57:22.312800",
        "meta_mean_motion": 13.78744494,
        "meta_eccentricity": 0.02008264,
        "meta_inclination": 100.4664,
        "meta_ra_of_asc_node": 330.7432,
        "meta_arg_of_pericenter": 20.2647,
        "meta_mean_anomaly": 34.639,
        "meta_ephemeris_type": 0,
        "meta_classification_type": "U",
        "meta_norad_cat_id": 30153,
        "meta_element_set_no": 999,
        "meta_rev_at_epoch": 94695,
        "meta_bstar": 0.0018099233,
        "meta_mean_motion_dot": 2.086e-05,
        "meta_mean_motion_ddot": 0,
        "tle_line1": "1 30153U 99025TJ  25340.95650825  .00002086  00000+0  18099-2 0  9995",
        "tle_line2": "2 30153 100.4664 330.7432 0200826  20.2647  34.6390 13.78744494946955"
      },
      "geometry": {
        "type": "Point",
        "coordinates": [
          -34.085929060988455,
          26.219304738701027
        ]
      }
    },
    {
      "type": "Feature",
      "properties": {
        "norad_id": 30154,
        "name": "FENGYUN 1C DEB",
        "group": "fengyun-1c-debris",
        "lat": 45.01504390931323,
        "lon": -147.82147518236422,
        "alt_km": 911.5785442748384,
        "timestamp": "2025-12-07T07:31:36.572585+00:00",
        "meta_object_name": "FENGYUN 1C DEB",
        "meta_object_id": "1999-025TK",
        "meta_epoch": "2025-12-06T21:20:31.276032",
        "meta_mean_motion": 13.85956091,
        "meta_eccentricity": 0.0182705,
        "meta_inclination": 98.4496,
        "meta_ra_of_asc_node": 23.2425,
        "meta_arg_of_pericenter": 214.6785,
        "meta_mean_anomaly": 325.4575,
        "meta_ephemeris_type": 0,
        "meta_classification_type": "U",
        "meta_norad_cat_id": 30154,
        "meta_element_set_no": 999,
        "meta_rev_at_epoch": 94903,
        "meta_bstar": 0.0026827088,
        "meta_mean_motion_dot": 3.477e-05,
        "meta_mean_motion_ddot": 0,
        "tle_line1": "1 30154U 99025TK  25340.88925088  .00003477  00000+0  26827-2 0  9997",
        "tle_line2": "2 30154  98.4496  23.2425 0182705 214.6785 325.4575 13.85956091949032"
      },
      "geometry": {
        "type": "Point",
        "coordinates": [
          -147.82147518236422,
          45.01504390931323
        ]
      }
    },
    {
      "type": "Feature",
      "properties": {
        "norad_id": 30155,
        "name": "FENGYUN 1C DEB",
        "group": "fengyun-1c-debris",
        "lat": -49.21901056663911,
        "lon": -136.7718738476332,
        "alt_km": 1099.3315011878194,
        "timestamp": "2025-12-07T07:31:36.572595+00:00",
        "meta_object_name": "FENGYUN 1C DEB",
        "meta_object_id": "1999-025TL",
        "meta_epoch": "2025-12-06T21:39:33.833952",
        "meta_mean_motion": 13.73769021,
        "meta_eccentricity": 0.02418196,
        "meta_inclination": 99.7518,
        "meta_ra_of_asc_node": 54.3083,
        "meta_arg_of_pericenter": 359.0113,
        "meta_mean_anomaly": 1.0527,
        "meta_ephemeris_type": 0,
        "meta_classification_type": "U",
        "meta_norad_cat_id": 30155,
        "meta_element_set_no": 999,
        "meta_rev_at_epoch": 93784,
        "meta_bstar": 0.0026856732,
        "meta_mean_motion_dot": 3.055e-05,
        "meta_mean_motion_ddot": 0,
        "tle_line1": "1 30155U 99025TL  25340.90247493  .00003055  00000+0  26857-2 0  9993",
        "tle_line2": "2 30155  99.7518  54.3083 0241819 359.0113   1.0527 13.73769021937840"
      },
      "geometry": {
        "type": "Point",
        "coordinates": [
          -136.7718738476332,
          -49.21901056663911
        ]
      }
    },
    {
      "type": "Feature",
      "properties": {
        "norad_id": 30156,
        "name": "FENGYUN 1C DEB",
        "group": "fengyun-1c-debris",
        "lat": -8.087398322872454,
        "lon": -50.10967902125831,
        "alt_km": 922.858613545206,
        "timestamp": "2025-12-07T07:31:36.572605+00:00",
        "meta_object_name": "FENGYUN 1C DEB",
        "meta_object_id": "1999-025TM",
        "meta_epoch": "2025-12-06T21:24:10.961856",
        "meta_mean_motion": 13.80781699,
        "meta_eccentricity": 0.01998484,
        "meta_inclination": 98.9179,
        "meta_ra_of_asc_node": 308.2135,
        "meta_arg_of_pericenter": 278.6362,
        "meta_mean_anomaly": 135.4162,
        "meta_ephemeris_type": 0,
        "meta_classification_type": "U",
        "meta_norad_cat_id": 30156,
        "meta_element_set_no": 999,
        "meta_rev_at_epoch": 94610,
        "meta_bstar": 0.0026970622,
        "meta_mean_motion_dot": 3.259e-05,
        "meta_mean_motion_ddot": 0,
        "tle_line1": "1 30156U 99025TM  25340.89179354  .00003259  00000+0  26971-2 0  9995",
        "tle_line2": "2 30156  98.9179 308.2135 0199848 278.6362 135.4162 13.80781699946109"
      },
      "geometry": {
        "type": "Point",
        "coordinates": [
          -50.10967902125831,
          -8.087398322872454
        ]
      }
    },
    {
      "type": "Feature",
      "properties": {
        "norad_id": 30157,
        "name": "FENGYUN 1C DEB",
        "group": "fengyun-1c-debris",
        "lat": 80.58447410659014,
        "lon": -34.07704521806093,
        "alt_km": 745.928813397687,
        "timestamp": "2025-12-07T07:31:36.572615+00:00",
        "meta_object_name": "FENGYUN 1C DEB",
        "meta_object_id": "1999-025TN",
        "meta_epoch": "2025-12-06T12:53:28.940928",
        "meta_mean_motion": 14.44954203,
        "meta_eccentricity": 0.00370268,
        "meta_inclination": 98.7179,
        "meta_ra_of_asc_node": 77.4117,
        "meta_arg_of_pericenter": 211.3436,
        "meta_mean_anomaly": 165.7832,
        "meta_ephemeris_type": 0,
        "meta_classification_type": "U",
        "meta_norad_cat_id": 30157,
        "meta_element_set_no": 999,
        "meta_rev_at_epoch": 97983,
        "meta_bstar": 0.0038279519,
        "meta_mean_motion_dot": 0.00013434,
        "meta_mean_motion_ddot": 0,
        "tle_line1": "1 30157U 99025TN  25340.53714052  .00013434  00000+0  38280-2 0  9999",
        "tle_line2": "2 30157  98.7179  77.4117 0037026 211.3436 165.7832 14.44954203979838"
      },
      "geometry": {
        "type": "Point",
        "coordinates": [
          -34.07704521806093,
          80.58447410659014
        ]
      }
    },
    {
      "type": "Feature",
      "properties": {
        "norad_id": 30160,
        "name": "FENGYUN 1C DEB",
        "group": "fengyun-1c-debris",
        "lat": -22.526092241628007,
        "lon": -65.76432979543321,
        "alt_km": 1349.6036760433972,
        "timestamp": "2025-12-07T07:31:36.572625+00:00",
        "meta_object_name": "FENGYUN 1C DEB",
        "meta_object_id": "1999-025TR",
        "meta_epoch": "2025-12-06T19:28:41.039904",
        "meta_mean_motion": 13.42879609,
        "meta_eccentricity": 0.03424763,
        "meta_inclination": 98.8854,
        "meta_ra_of_asc_node": 290.0724,
        "meta_arg_of_pericenter": 142.7818,
        "meta_mean_anomaly": 289.8632,
        "meta_ephemeris_type": 0,
        "meta_classification_type": "U",
        "meta_norad_cat_id": 30160,
        "meta_element_set_no": 999,
        "meta_rev_at_epoch": 92334,
        "meta_bstar": 0.0011660156,
        "meta_mean_motion_dot": 9.06e-06,
        "meta_mean_motion_ddot": 0,
        "tle_line1": "1 30160U 99025TR  25340.81158611  .00000906  00000+0  11660-2 0  9990",
        "tle_line2": "2 30160  98.8854 290.0724 0342476 142.7818 289.8632 13.42879609923343"
      },
      "geometry": {
        "type": "Point",
        "coordinates": [
          -65.76432979543321,
          -22.526092241628007
        ]
      }
    },
    {
      "type": "Feature",
      "properties": {
        "norad_id": 30161,
        "name": "FENGYUN 1C DEB",
        "group": "fengyun-1c-debris",
        "lat": 60.18386977413668,
        "lon": 167.30070444695954,
        "alt_km": 1283.8714413858925,
        "timestamp": "2025-12-07T07:31:36.572635+00:00",
        "meta_object_name": "FENGYUN 1C DEB",
        "meta_object_id": "1999-025TS",
        "meta_epoch": "2025-12-06T22:18:15.922080",
        "meta_mean_motion": 13.49692734,
        "meta_eccentricity": 0.03285995,
        "meta_inclination": 100.5045,
        "meta_ra_of_asc_node": 328.0059,
        "meta_arg_of_pericenter": 271.921,
        "meta_mean_anomaly": 141.658,
        "meta_ephemeris_type": 0,
        "meta_classification_type": "U",
        "meta_norad_cat_id": 30161,
        "meta_element_set_no": 999,
        "meta_rev_at_epoch": 92481,
        "meta_bstar": 0.0032127516,
        "meta_mean_motion_dot": 2.791e-05,
        "meta_mean_motion_ddot": 0,
        "tle_line1": "1 30161U 99025TS  25340.92935095  .00002791  00000+0  32128-2 0  9998",
        "tle_line2": "2 30161 100.5045 328.0059 0328599 271.9210 141.6580 13.49692734924810"
      },
      "geometry": {
        "type": "Point",
        "coordinates": [
          167.30070444695954,
          60.18386977413668
        ]
      }
    }
  ]
}